CTC2_L_00306001-01
1 33964U 26285YW  26070.40846065  .00000000  00000+0  00000-0 0  9995
2 33964  70.0000   0.0000 0000000   0.0000   0.0000 13.72670257    15
CTC2_L_00306001-02
1 33965U 23473EX  26070.40846065  .00000000  00000+0  00000-0 0  9992
2 33965  70.0000   0.0000 0000000   0.0000  90.0000 13.72670257    15
CTC2_L_00306001-03
1 33966U 25168T   26070.40846065  .00000000  00000+0  00000-0 0  9996
2 33966  70.0000   0.0000 0000000   0.0000 180.0000 13.72670257    16
CTC2_L_00306001-04
1 33967U 25651XZ  26070.40846065  .00000000  00000+0  00000-0 0  9994
2 33967  70.0000   0.0000 0000000   0.0000 270.0000 13.72670257    17
CTC2_L_00306002-01
1 33968U 22965FX  26070.40846065  .00000000  00000+0  00000-0 0  9990
2 33968  70.0000  12.0000 0000000   0.0000  12.0000 13.72670257    15
CTC2_L_00306002-02
1 33969U 23985PM  26070.40846065  .00000000  00000+0  00000-0 0  9994
2 33969  70.0000  12.0000 0000000   0.0000 102.0000 13.72670257    16
CTC2_L_00306002-03
1 33970U 23603MY  26070.40846065  .00000000  00000+0  00000-0 0  9993
2 33970  70.0000  12.0000 0000000   0.0000 192.0000 13.72670257    17
CTC2_L_00306002-04
1 33971U 24525KE  26070.40846065  .00000000  00000+0  00000-0 0  9998
2 33971  70.0000  12.0000 0000000   0.0000 282.0000 13.72670257    18
CTC2_L_00306003-01
1 33972U 22653XF  26070.40846065  .00000000  00000+0  00000-0 0  9999
2 33972  70.0000  24.0000 0000000   0.0000  24.0000 13.72670257    16
CTC2_L_00306003-02
1 33973U 24576BH  26070.40846065  .00000000  00000+0  00000-0 0  9996
2 33973  70.0000  24.0000 0000000   0.0000 114.0000 13.72670257    17
CTC2_L_00306003-03
1 33974U 25332ZZ  26070.40846065  .00000000  00000+0  00000-0 0  9998
2 33974  70.0000  24.0000 0000000   0.0000 204.0000 13.72670257    18
CTC2_L_00306003-04
1 33975U 24999HG  26070.40846065  .00000000  00000+0  00000-0 0  9997
2 33975  70.0000  24.0000 0000000   0.0000 294.0000 13.72670257    18
CTC2_L_00306004-01
1 33976U 23983ZH  26070.40846065  .00000000  00000+0  00000-0 0  9990
2 33976  70.0000  36.0000 0000000   0.0000  36.0000 13.72670257    16
CTC2_L_00306004-02
1 33977U 23746ON  26070.40846065  .00000000  00000+0  00000-0 0  9998
2 33977  70.0000  36.0000 0000000   0.0000 126.0000 13.72670257    17
CTC2_L_00306004-03
1 33978U 25593DY  26070.40846065  .00000000  00000+0  00000-0 0  9991
2 33978  70.0000  36.0000 0000000   0.0000 216.0000 13.72670257    18
CTC2_L_00306004-04
1 33979U 26776PR  26070.40846065  .00000000  00000+0  00000-0 0  9996
2 33979  70.0000  36.0000 0000000   0.0000 306.0000 13.72670257    19
CTC2_L_00306005-01
1 33980U 25001TY  26070.40846065  .00000000  00000+0  00000-0 0  9998
2 33980  70.0000  48.0000 0000000   0.0000  48.0000 13.72670257    17
CTC2_L_00306005-02
1 33981U 24577GB  26070.40846065  .00000000  00000+0  00000-0 0  9996
2 33981  70.0000  48.0000 0000000   0.0000 138.0000 13.72670257    18
CTC2_L_00306005-03
1 33982U 25434WD  26070.40846065  .00000000  00000+0  00000-0 0  9990
2 33982  70.0000  48.0000 0000000   0.0000 228.0000 13.72670257    19
CTC2_L_00306005-04
1 33983U 24208FT  26070.40846065  .00000000  00000+0  00000-0 0  9999
2 33983  70.0000  48.0000 0000000   0.0000 318.0000 13.72670257    10
CTC2_L_00306006-01
1 33984U 25460GF  26070.40846065  .00000000  00000+0  00000-0 0  9991
2 33984  70.0000  60.0000 0000000   0.0000  60.0000 13.72670257    19
CTC2_L_00306006-02
1 33985U 22400YX  26070.40846065  .00000000  00000+0  00000-0 0  9993
2 33985  70.0000  60.0000 0000000   0.0000 150.0000 13.72670257    10
CTC2_L_00306006-03
1 33986U 26677OL  26070.40846065  .00000000  00000+0  00000-0 0  9994
2 33986  70.0000  60.0000 0000000   0.0000 240.0000 13.72670257    11
CTC2_L_00306006-04
1 33987U 25608FH  26070.40846065  .00000000  00000+0  00000-0 0  9998
2 33987  70.0000  60.0000 0000000   0.0000 330.0000 13.72670257    12
CTC2_L_00306007-01
1 33988U 25817XI  26070.40846065  .00000000  00000+0  00000-0 0  9991
2 33988  70.0000  72.0000 0000000   0.0000  72.0000 13.72670257    19
CTC2_L_00306007-02
1 33989U 22752P   26070.40846065  .00000000  00000+0  00000-0 0  9997
2 33989  70.0000  72.0000 0000000   0.0000 162.0000 13.72670257    10
CTC2_L_00306007-03
1 33990U 23044VI  26070.40846065  .00000000  00000+0  00000-0 0  9994
2 33990  70.0000  72.0000 0000000   0.0000 252.0000 13.72670257    12
CTC2_L_00306007-04
1 33991U 26189MW  26070.40846065  .00000000  00000+0  00000-0 0  9998
2 33991  70.0000  72.0000 0000000   0.0000 342.0000 13.72670257    13
CTC2_L_00306008-01
1 33992U 23642PJ  26070.40846065  .00000000  00000+0  00000-0 0  9990
2 33992  70.0000  84.0000 0000000   0.0000  84.0000 13.72670257    10
CTC2_L_00306008-02
1 33993U 23792YN  26070.40846065  .00000000  00000+0  00000-0 0  9997
2 33993  70.0000  84.0000 0000000   0.0000 174.0000 13.72670257    11
CTC2_L_00306008-03
1 33994U 24207WY  26070.40846065  .00000000  00000+0  00000-0 0  9990
2 33994  70.0000  84.0000 0000000   0.0000 264.0000 13.72670257    12
CTC2_L_00306008-04
1 33995U 22202ZZ  26070.40846065  .00000000  00000+0  00000-0 0  9994
2 33995  70.0000  84.0000 0000000   0.0000 354.0000 13.72670257    13
CTC2_L_00306009-01
1 33996U 25968TH  26070.40846065  .00000000  00000+0  00000-0 0  9997
2 33996  70.0000  96.0000 0000000   0.0000  96.0000 13.72670257    10
CTC2_L_00306009-02
1 33997U 22636OK  26070.40846065  .00000000  00000+0  00000-0 0  9997
2 33997  70.0000  96.0000 0000000   0.0000 186.0000 13.72670257    11
CTC2_L_00306009-03
1 33998U 23679HN  26070.40846065  .00000000  00000+0  00000-0 0  9996
2 33998  70.0000  96.0000 0000000   0.0000 276.0000 13.72670257    12
CTC2_L_00306009-04
1 33999U 22751SJ  26070.40846065  .00000000  00000+0  00000-0 0  9997
2 33999  70.0000  96.0000 0000000   0.0000   6.0000 13.72670257    14
CTC2_L_00306010-01
1 34000U 22870CB  26070.40846065  .00000000  00000+0  00000-0 0  9993
2 34000  70.0000 108.0000 0000000   0.0000 108.0000 13.72670257    15
CTC2_L_00306010-02
1 34001U 26299GI  26070.40846065  .00000000  00000+0  00000-0 0  9993
2 34001  70.0000 108.0000 0000000   0.0000 198.0000 13.72670257    15
CTC2_L_00306010-03
1 34002U 22786AH  26070.40846065  .00000000  00000+0  00000-0 0  9991
2 34002  70.0000 108.0000 0000000   0.0000 288.0000 13.72670257    16
CTC2_L_00306010-04
1 34003U 26851LI  26070.40846065  .00000000  00000+0  00000-0 0  9999
2 34003  70.0000 108.0000 0000000   0.0000  18.0000 13.72670257    18
CTC2_L_00306011-01
1 34004U 26872UI  26070.40846065  .00000000  00000+0  00000-0 0  9993
2 34004  70.0000 120.0000 0000000   0.0000 120.0000 13.72670257    17
CTC2_L_00306011-02
1 34005U 25527UK  26070.40846065  .00000000  00000+0  00000-0 0  9990
2 34005  70.0000 120.0000 0000000   0.0000 210.0000 13.72670257    18
CTC2_L_00306011-03
1 34006U 26794A   26070.40846065  .00000000  00000+0  00000-0 0  9998
2 34006  70.0000 120.0000 0000000   0.0000 300.0000 13.72670257    19
CTC2_L_00306011-04
1 34007U 23180VE  26070.40846065  .00000000  00000+0  00000-0 0  9995
2 34007  70.0000 120.0000 0000000   0.0000  30.0000 13.72670257    10
CTC2_L_00306012-01
1 34008U 22016TS  26070.40846065  .00000000  00000+0  00000-0 0  9993
2 34008  70.0000 132.0000 0000000   0.0000 132.0000 13.72670257    17
CTC2_L_00306012-02
1 34009U 25282AJ  26070.40846065  .00000000  00000+0  00000-0 0  9992
2 34009  70.0000 132.0000 0000000   0.0000 222.0000 13.72670257    18
CTC2_L_00306012-03
1 34010U 25058ND  26070.40846065  .00000000  00000+0  00000-0 0  9995
2 34010  70.0000 132.0000 0000000   0.0000 312.0000 13.72670257    10
CTC2_L_00306012-04
1 34011U 22511FN  26070.40846065  .00000000  00000+0  00000-0 0  9997
2 34011  70.0000 132.0000 0000000   0.0000  42.0000 13.72670257    11
CTC2_L_00306013-01
1 34012U 25099CB  26070.40846065  .00000000  00000+0  00000-0 0  9992
2 34012  70.0000 144.0000 0000000   0.0000 144.0000 13.72670257    18
CTC2_L_00306013-02
1 34013U 23849OG  26070.40846065  .00000000  00000+0  00000-0 0  9994
2 34013  70.0000 144.0000 0000000   0.0000 234.0000 13.72670257    19
CTC2_L_00306013-03
1 34014U 22973BZ  26070.40846065  .00000000  00000+0  00000-0 0  9992
2 34014  70.0000 144.0000 0000000   0.0000 324.0000 13.72670257    10
CTC2_L_00306013-04
1 34015U 26253ZW  26070.40846065  .00000000  00000+0  00000-0 0  9998
2 34015  70.0000 144.0000 0000000   0.0000  54.0000 13.72670257    11
CTC2_L_00306014-01
1 34016U 23721MG  26070.40846065  .00000000  00000+0  00000-0 0  9996
2 34016  70.0000 156.0000 0000000   0.0000 156.0000 13.72670257    18
CTC2_L_00306014-02
1 34017U 22342LG  26070.40846065  .00000000  00000+0  00000-0 0  9995
2 34017  70.0000 156.0000 0000000   0.0000 246.0000 13.72670257    19
CTC2_L_00306014-03
1 34018U 22628UA  26070.40846065  .00000000  00000+0  00000-0 0  9993
2 34018  70.0000 156.0000 0000000   0.0000 336.0000 13.72670257    10
CTC2_L_00306014-04
1 34019U 25569JM  26070.40846065  .00000000  00000+0  00000-0 0  9991
2 34019  70.0000 156.0000 0000000   0.0000  66.0000 13.72670257    11
CTC2_L_00306015-01
1 34020U 22331BM  26070.40846065  .00000000  00000+0  00000-0 0  9997
2 34020  70.0000 168.0000 0000000   0.0000 168.0000 13.72670257    19
CTC2_L_00306015-02
1 34021U 26807UC  26070.40846065  .00000000  00000+0  00000-0 0  9990
2 34021  70.0000 168.0000 0000000   0.0000 258.0000 13.72670257    10
CTC2_L_00306015-03
1 34022U 22667BW  26070.40846065  .00000000  00000+0  00000-0 0  9991
2 34022  70.0000 168.0000 0000000   0.0000 348.0000 13.72670257    11
CTC2_L_00306015-04
1 34023U 23383T   26070.40846065  .00000000  00000+0  00000-0 0  9998
2 34023  70.0000 168.0000 0000000   0.0000  78.0000 13.72670257    12
CTC2_L_00306016-01
1 34024U 23430EO  26070.40846065  .00000000  00000+0  00000-0 0  9992
2 34024  70.0000 180.0000 0000000   0.0000 180.0000 13.72670257    11
CTC2_L_00306016-02
1 34025U 22516PP  26070.40846065  .00000000  00000+0  00000-0 0  9997
2 34025  70.0000 180.0000 0000000   0.0000 270.0000 13.72670257    12
